OBJECT_NAME,OBJECT_ID,EPOCH,MEAN_MOTION,ECCENTRICITY,INCLINATION,RA_OF_ASC_NODE,ARG_OF_PERICENTER,MEAN_ANOMALY,EPHEMERIS_TYPE,CLASSIFICATION_TYPE,NORAD_CAT_ID,ELEMENT_SET_NO,REV_AT_EPOCH,BSTAR,MEAN_MOTION_DOT,MEAN_MOTION_DDOT
SL-16 DEB,2007-029D,2026-03-21T04:48:11.886912,13.68616207,.02242778,70.9466,114.7989,226.1230,205.7180,0,U,31795,999,93518,.13411147E-3,.94E-6,0
SL-16 DEB,2007-029E,2026-03-20T14:41:57.279264,13.68912981,.0213385,71.0442,174.2897,140.8980,285.9171,0,U,31796,999,93531,.14001E-3,.101E-5,0
SL-16 DEB,2007-029F,2026-03-20T09:29:11.366016,13.66456679,.02284935,70.9438,159.2745,289.1778,145.3442,0,U,31799,999,93326,.25066619E-3,.205E-5,0
FENGYUN 1C DEB,1999-025CGS,2026-03-17T06:12:22.163040,14.12816786,.01384566,98.2842,242.8707,231.5718,127.2961,0,U,31804,999,64996,.14351156E-2,.2882E-4,0
FENGYUN 1C DEB,1999-025CGT,2026-03-20T05:06:40.559616,14.04896997,.04381204,98.3737,61.0371,241.9646,113.6563,0,U,31805,999,63731,.77029992E-3,.2901E-4,0
FENGYUN 1C DEB,1999-025CGV,2026-03-20T14:41:00.260448,14.52751854,.0103761,99.0873,223.5491,228.2643,130.9643,0,U,31807,999,66726,.81522E-3,.3534E-4,0
FENGYUN 1C DEB,1999-025CGW,2026-03-17T07:14:11.737536,14.62251382,.00364547,99.2042,278.5783,213.8106,146.0768,0,U,31808,999,58982,.30427029E-2,.15461E-3,0
FENGYUN 1C DEB,1999-025CGY,2026-03-20T18:41:20.509440,14.46510121,.02114723,98.2644,97.8178,201.4899,157.7317,0,U,31810,999,65831,.41999862E-3,.1945E-4,0
FENGYUN 1C DEB,1999-025CHB,2026-03-19T01:57:34.047648,14.50313353,.01355934,99.4159,173.9468,48.7645,312.5138,0,U,31813,999,98652,.34597575E-3,.1456E-4,0
FENGYUN 1C DEB,1999-025CHC,2026-03-07T08:36:08.491968,13.66576773,.02284899,99.5589,120.2951,358.6893,1.3626,0,U,31814,999,62955,.63922457E-3,.59E-5,0
FENGYUN 1C DEB,1999-025CHD,2026-03-21T05:26:50.282304,14.10304654,.00599007,98.7803,69.1574,102.2867,258.5020,0,U,31815,999,96927,.2004011E-4,-.6E-7,0
FENGYUN 1C DEB,1999-025CHE,2026-03-20T19:22:00.651936,13.94461787,.0120506,98.9850,196.4572,244.8191,268.5119,0,U,31816,999,95060,.93059E-3,.1274E-4,0
FENGYUN 1C DEB,1999-025CHF,2026-03-20T18:02:03.024096,14.67329015,.00610035,98.9216,89.6079,132.3000,228.3395,0,U,31817,999,72842,.10439818E-2,.6005E-4,0
FENGYUN 1C DEB,1999-025CHH,2026-03-21T05:19:50.627136,14.30393970,.00879731,98.4838,74.0297,30.0892,330.5304,0,U,31819,999,98101,.34656457E-3,.897E-5,0
FENGYUN 1C DEB,1999-025CHJ,2026-03-20T06:03:45.512640,14.96020913,.0140451,98.9641,268.9013,57.9532,303.5238,0,U,31820,999,99712,.58066E-3,.7877E-4,0
FENGYUN 1C DEB,1999-025CHK,2026-03-20T22:27:51.898176,14.45689603,.02116573,98.1564,325.9211,74.1862,288.2555,0,U,31821,999,95078,.41029433E-2,.19168E-3,0
FENGYUN 1C DEB,1999-025CHM,2026-03-19T13:18:03.399264,14.68516035,.00334269,99.5048,185.1164,279.2266,80.5155,0,U,31823,999,98137,.12441279E-2,.7216E-4,0
FENGYUN 1C DEB,1999-025CHP,2026-03-21T05:10:27.570432,14.21934896,.01663651,98.5958,82.3026,52.5964,309.0227,0,U,31825,999,97021,.51606867E-3,.1268E-4,0
FENGYUN 1C DEB,1999-025CHQ,2026-03-20T17:45:25.116192,14.19498001,.01226048,98.6365,73.3727,266.9980,273.2333,0,U,31826,999,97204,.30046486E-3,.638E-5,0
FENGYUN 1C DEB,1999-025CHT,2026-03-21T06:24:20.053728,13.88786918,.01679717,98.8465,250.0767,255.8325,230.8227,0,U,31829,999,95515,.34210761E-3,.42E-5,0
FENGYUN 1C DEB,1999-025CHU,2026-03-20T18:15:23.095872,13.83935434,.01826776,99.1599,188.0018,53.5953,98.2392,0,U,31830,999,94095,.12491742E-2,.1536E-4,0
FENGYUN 1C DEB,1999-025CHY,2026-03-20T08:06:39.611808,14.03287297,.01615358,98.3604,296.7690,160.9278,199.8035,0,U,31834,999,65079,.13548736E-3,.199E-5,0
FENGYUN 1C DEB,1999-025CJA,2026-03-16T20:34:27.888672,14.10837695,.0109888,98.6196,42.1143,209.5609,149.9322,0,U,31836,999,62730,.11682724E-2,.2173E-4,0
FENGYUN 1C DEB,1999-025CJB,2026-03-20T11:31:31.846944,14.84599578,.00904539,98.0859,161.3318,60.8014,300.2210,0,U,31837,999,99808,.61327529E-3,.5514E-4,0
FENGYUN 1C DEB,1999-025CJF,2026-03-16T05:44:12.287904,14.04711872,.03046311,98.4253,242.3629,40.6271,136.9925,0,U,31841,999,60651,.10239546E-2,.2444E-4,0
FENGYUN 1C DEB,1999-025CJH,2026-03-20T14:04:09.209280,13.34990420,.0634646,99.2911,16.9733,112.3478,254.6151,0,U,31843,999,66001,.18802E-2,.2995E-4,0
FENGYUN 1C DEB,1999-025CJJ,2026-03-20T17:52:04.443168,14.20158835,.01033464,100.3074,89.3862,82.8270,278.4638,0,U,31844,999,96723,.73096166E-3,.1589E-4,0
FENGYUN 1C DEB,1999-025CJU,2026-03-20T06:58:32.265408,14.03224887,.0071173,98.8518,84.8113,228.5186,130.9857,0,U,31854,999,70640,.47297E-3,.711E-5,0
FENGYUN 1C DEB,1999-025CJX,2026-03-06T05:44:50.910432,13.62260171,.03108978,96.1858,69.4741,50.0302,312.7714,0,U,31857,999,62766,.26402974E-2,.2806E-4,0
FENGYUN 1C DEB,1999-025CKB,2026-03-16T20:43:55.833888,13.30738142,.04938936,102.3441,292.3361,0.5434,359.6125,0,U,31861,999,68019,.19298658E-2,.1736E-4,0
BREEZE-M DEB [TANK],2007-032B,2026-03-20T19:40:44.513760,5.55589922,.49828168,45.9956,22.3024,17.0466,354.9595,0,U,31863,999,37641,.11004946E-2,.2271E-4,0
FENGYUN 1C DEB,1999-025CKC,2026-03-14T16:43:32.996352,15.04404324,.00982542,98.9908,163.7172,339.5209,20.2085,0,U,31877,999,422,.10259188E-2,.15889E-3,0
FENGYUN 1C DEB,1999-025CKD,2026-03-17T14:01:34.154112,14.88699603,.00791209,99.4453,22.9548,302.2595,57.0966,0,U,31878,999,99503,.10100454E-2,.9927E-4,0
FENGYUN 1C DEB,1999-025CKE,2026-03-20T04:09:08.641152,14.43247479,.02089552,99.6987,336.1579,113.7625,248.5628,0,U,31879,999,64615,.21522023E-3,.878E-5,0
FENGYUN 1C DEB,1999-025CKF,2026-03-14T07:07:03.963360,13.89575775,.01269457,100.0378,248.1532,271.1642,87.4972,0,U,31880,999,64251,.70768321E-3,.872E-5,0
FENGYUN 1C DEB,1999-025CKH,2026-03-19T12:11:54.330144,14.13240116,.00360614,98.9210,5.6811,313.0122,46.8030,0,U,31882,999,60003,.52832216E-3,.951E-5,0
FENGYUN 1C DEB,1999-025CKJ,2026-03-20T18:20:55.244256,14.68847414,.0122337,99.0316,11.5097,126.1114,235.1487,0,U,31883,999,99417,.50022E-3,.3211E-4,0
FENGYUN 1C DEB,1999-025CKN,2026-03-20T22:13:56.434368,14.59219713,.00242886,99.5249,150.7895,79.9815,280.4120,0,U,31887,999,98039,.16415069E-2,.7724E-4,0
FENGYUN 1C DEB,1999-025CKP,2026-03-19T13:13:20.095392,14.35176201,.00182854,99.1578,15.6681,300.1091,59.8280,0,U,31888,999,97025,.1407987E-2,.3984E-4,0
FENGYUN 1C DEB,1999-025CKR,2026-03-20T07:04:50.553984,14.10182792,.0071773,98.7181,92.8267,326.8398,32.8284,0,U,31890,999,65527,.89712E-4,.119E-5,0
FENGYUN 1C DEB,1999-025CKS,2026-03-12T23:20:45.309696,13.66306479,.02235062,99.3991,89.4650,310.6584,47.5319,0,U,31891,999,93642,.59765164E-3,.542E-5,0
FENGYUN 1C DEB,1999-025CKT,2026-03-18T18:06:15.841728,14.41835001,.01973104,99.2958,260.9840,5.2817,355.0389,0,U,31892,999,66289,.29535688E-3,.1157E-4,0
FENGYUN 1C DEB,1999-025CKU,2026-03-21T04:21:59.305824,14.64207948,.01748963,99.0846,53.4603,25.3905,350.8051,0,U,31893,999,99845,.3941978E-3,.2527E-4,0
FENGYUN 1C DEB,1999-025CKW,2026-03-14T08:21:53.904384,13.76017587,.02219436,99.0858,103.1122,347.4931,12.0766,0,U,31895,999,63156,.21379653E-2,.2444E-4,0
FENGYUN 1C DEB,1999-025CKZ,2026-03-18T21:55:22.654560,14.69827381,.01403743,98.6971,313.9529,279.7732,78.7644,0,U,31898,999,67124,.53107108E-3,.3626E-4,0
FENGYUN 1C DEB,1999-025CLA,2026-03-17T23:06:59.215104,13.83801936,.01791642,102.0741,171.6768,288.0958,70.0744,0,U,31899,999,68881,.99981906E-3,.1186E-4,0
FENGYUN 1C DEB,1999-025CLC,2026-03-20T02:27:13.305312,13.94207856,.01304039,98.6153,38.6732,280.5763,78.0733,0,U,31901,999,64764,.21462966E-3,.264E-5,0
FENGYUN 1C DEB,1999-025CLD,2026-03-17T17:07:05.633760,14.23480623,.01788622,98.5202,58.5537,232.4274,303.7971,0,U,31902,999,66142,.19419724E-3,.475E-5,0
FENGYUN 1C DEB,1999-025CLE,2026-03-20T22:49:34.594176,14.61297417,.01287316,99.2806,85.1631,98.2538,263.3282,0,U,31903,999,98829,.52683862E-3,.2862E-4,0
FENGYUN 1C DEB,1999-025CLG,2026-03-21T05:06:41.884992,14.33640744,.01946666,99.1628,67.1663,167.4118,193.2029,0,U,31905,999,98035,.30354509E-3,.985E-5,0
FENGYUN 1C DEB,1999-025CLH,2026-03-18T08:28:55.330752,14.25739586,.00526346,98.6913,214.5901,199.4873,216.8797,0,U,31906,999,96491,.16786058E-2,.4001E-4,0
FENGYUN 1C DEB,1999-025CLQ,2026-03-21T01:16:26.709024,13.92431140,.01936138,99.2937,6.3031,45.4951,316.1850,0,U,31913,999,57254,.23026332E-2,.3411E-4,0
FENGYUN 1C DEB,1999-025CLR,2026-03-20T21:45:24.747552,14.55915950,.01824393,99.0158,315.9009,131.7555,229.9400,0,U,31914,999,69901,.10432775E-3,.51E-5,0
FENGYUN 1C DEB,1999-025CLS,2026-03-21T06:20:57.635808,14.16576483,.01003843,98.6265,100.0921,347.9693,11.9086,0,U,31915,999,65502,.66830881E-3,.1357E-4,0
FENGYUN 1C DEB,1999-025CLT,2026-03-20T23:53:02.268096,14.33421730,.01467796,99.3223,177.6883,172.0678,188.2875,0,U,31916,999,65934,.13506807E-2,.4153E-4,0
FENGYUN 1C DEB,1999-025CLU,2026-03-12T20:04:05.356704,14.37995247,.01898364,98.3685,67.2618,23.5076,93.1061,0,U,31917,999,97716,.83408143E-3,.3061E-4,0
FENGYUN 1C DEB,1999-025CLW,2026-03-20T17:08:53.181024,14.46088702,.01009065,99.1146,234.3280,275.9242,99.2318,0,U,31919,999,98497,.31407296E-3,.1137E-4,0
FENGYUN 1C DEB,1999-025CLY,2026-03-20T09:57:35.376192,13.75548293,.02038082,99.3350,334.8051,7.8344,352.5909,0,U,31921,999,93649,.12225781E-2,.1327E-4,0
FENGYUN 1C DEB,1999-025CLZ,2026-03-20T22:40:21.679104,13.87035047,.01623708,98.8152,70.7267,119.0624,297.5131,0,U,31922,999,94378,.11170312E-2,.1412E-4,0
FENGYUN 1C DEB,1999-025CMA,2026-03-20T04:05:34.423584,13.55197377,.02998175,98.4286,163.9164,50.6065,312.1221,0,U,31923,999,64954,.8229839E-3,.725E-5,0
FENGYUN 1C DEB,1999-025CMB,2026-03-20T20:46:09.115392,13.64280490,.02750096,98.4066,229.0955,196.5111,162.6943,0,U,31924,999,92805,.21065003E-2,.2142E-4,0
FENGYUN 1C DEB,1999-025CMD,2026-03-20T17:04:45.238944,14.32007612,.0035216,98.9522,182.9704,329.2522,30.6596,0,U,31926,999,96629,.16759E-2,.4484E-4,0
FENGYUN 1C DEB,1999-025CME,2026-03-18T20:07:15.496320,14.35279728,.00743935,98.8007,213.9984,131.6995,229.0586,0,U,31929,999,72024,.4589486E-3,.1311E-4,0
FENGYUN 1C DEB,1999-025CMG,2026-03-20T14:02:05.748000,13.42775087,.042462,97.8220,13.3851,15.2626,346.0872,0,U,31931,999,66535,.10822E-2,.1022E-4,0
